$$SOE
2461302.500000000, A.D. 2026-Sep-19 00:00:00.0000, 9.015558850495445E+06, 3.596295826514704E+08, 3.947294041826594E+07,
2461309.500000000, A.D. 2026-Sep-26 00:00:00.0000, -1.869971746284192E+06, 3.616702921508135E+08, 4.019825014006050E+07,
2461316.500000000, A.D. 2026-Oct-03 00:00:00.0000, -1.275374451600041E+07, 3.633466907098761E+08, 4.088306048931493E+07,
2461323.500000000, A.D. 2026-Oct-10 00:00:00.0000, -2.362500398610758E+07, 3.646629366581957E+08, 4.152733923369037E+07,
2461330.500000000, A.D. 2026-Oct-17 00:00:00.0000, -3.447334104728911E+07, 3.656233469003795E+08, 4.213108761040401E+07,
2461337.500000000, A.D. 2026-Oct-24 00:00:00.0000, -4.528868108522332E+07, 3.662323808024293E+08, 4.269433799323146E+07,
2461344.500000000, A.D. 2026-Oct-31 00:00:00.0000, -5.606127202536488E+07, 3.664946253499516E+08, 4.321715169670299E+07,
2461351.500000000, A.D. 2026-Nov-07 00:00:00.0000, -6.678167201838617E+07, 3.664147815584545E+08, 4.369961688536116E+07,
2461358.500000000, A.D. 2026-Nov-14 00:00:00.0000, -7.744073662267444E+07, 3.659976529352867E+08, 4.414184663548175E+07,
2461365.500000000, A.D. 2026-Nov-21 00:00:00.0000, -8.802960734220000E+07, 3.652481365945886E+08, 4.454397736478369E+07,
2461372.500000000, A.D. 2026-Nov-28 00:00:00.0000, -9.853970255191721E+07, 3.641712139361772E+08, 4.490616746860705E+07,
2461379.500000000, A.D. 2026-Dec-05 00:00:00.0000, -1.089627072225819E+08, 3.627719401502217E+08, 4.522859576968239E+07,
2461386.500000000, A.D. 2026-Dec-12 00:00:00.0000, -1.192905613072141E+08, 3.610554355901521E+08, 4.551146001454251E+07,
2461393.500000000, A.D. 2026-Dec-19 00:00:00.0000, -1.295154486925377E+08, 3.590268789534859E+08, 4.575497558318932E+07,
2461400.500000000, A.D. 2026-Dec-26 00:00:00.0000, -1.396297868720573E+08, 3.566915013336729E+08, 4.595937434691201E+07,
2461407.500000000, A.D. 2027-Jan-02 00:00:00.0000, -1.496262170802152E+08, 3.540545808899306E+08, 4.612490362747122E+07,
2461414.500000000, A.D. 2027-Jan-09 00:00:00.0000, -1.594975947835782E+08, 3.511214381023426E+08, 4.625182524391833E+07,
2461421.500000000, A.D. 2027-Jan-16 00:00:00.0000, -1.692369805016963E+08, 3.478974315744645E+08, 4.634041464012179E+07,
2461428.500000000, A.D. 2027-Jan-23 00:00:00.0000, -1.788376309150727E+08, 3.443879542996427E+08, 4.639096008064757E+07,
2461435.500000000, A.D. 2027-Jan-30 00:00:00.0000, -1.882929900737788E+08, 3.405984302998547E+08, 4.640376188859305E+07,
2461442.500000000, A.D. 2027-Feb-06 00:00:00.0000, -1.975966802832499E+08, 3.365343119354794E+08, 4.637913170919424E+07,
2461449.500000000, A.D. 2027-Feb-13 00:00:00.0000, -2.067424931298951E+08, 3.322010790685540E+08, 4.631739193696220E+07,
2461456.500000000, A.D. 2027-Feb-20 00:00:00.0000, -2.157243830113688E+08, 3.276042392582206E+08, 4.621887545521238E+07,
2461463.500000000, A.D. 2027-Feb-27 00:00:00.0000, -2.245364617701472E+08, 3.227493257449933E+08, 4.608392529370290E+07,
2461470.500000000, A.D. 2027-Mar-06 00:00:00.0000, -2.331729914076809E+08, 3.176418951140150E+08, 4.591289408102208E+07,
2461477.500000000, A.D. 2027-Mar-13 00:00:00.0000, -2.416283764788530E+08, 3.122875266629047E+08, 4.570614360337532E+07,
2461484.500000000, A.D. 2027-Mar-20 00:00:00.0000, -2.498971572911997E+08, 3.066918226199597E+08, 4.546404450240558E+07,
2461491.500000000, A.D. 2027-Mar-27 00:00:00.0000, -2.579740036998936E+08, 3.008604086424653E+08, 4.518697604560593E+07,
2461498.500000000, A.D. 2027-Apr-03 00:00:00.0000, -2.658537092897305E+08, 2.947989345270199E+08, 4.487532594401927E+07,
2461505.500000000, A.D. 2027-Apr-10 00:00:00.0000, -2.735311858778048E+08, 2.885130751368671E+08, 4.452949021104757E+07,
2461512.500000000, A.D. 2027-Apr-17 00:00:00.0000, -2.810014583100811E+08, 2.820085315159093E+08, 4.414987305702010E+07,
2461519.500000000, A.D. 2027-Apr-24 00:00:00.0000, -2.882596594681656E+08, 2.752910321129614E+08, 4.373688680526333E+07,
2461526.500000000, A.D. 2027-May-01 00:00:00.0000, -2.953010251824043E+08, 2.683663341311734E+08, 4.329095180276066E+07,
2461533.500000000, A.D. 2027-May-08 00:00:00.0000, -3.021208887402713E+08, 2.612402257392368E+08, 4.281249635687137E+07,
2461540.500000000, A.D. 2027-May-15 00:00:00.0000, -3.087146764852613E+08, 2.539185300878899E+08, 4.230195691215554E+07,
2461547.500000000, A.D. 2027-May-22 00:00:00.0000, -3.150779060694116E+08, 2.464071085339999E+08, 4.175977839813162E+07,
2461554.500000000, A.D. 2027-May-29 00:00:00.0000, -3.212061839983156E+08, 2.387118615974886E+08, 4.118641431908891E+07,
2461561.500000000, A.D. 2027-Jun-05 00:00:00.0000, -3.270952015797310E+08, 2.308387307722293E+08, 4.058232675957313E+07,
2461568.500000000, A.D. 2027-Jun-12 00:00:00.0000, -3.327407312859054E+08, 2.227937016162368E+08, 3.994798652457035E+07,
2461575.500000000, A.D. 2027-Jun-19 00:00:00.0000, -3.381386238624449E+08, 2.145828071838018E+08, 3.928387336818510E+07,
2461582.500000000, A.D. 2027-Jun-26 00:00:00.0000, -3.432848059043905E+08, 2.062121315350573E+08, 3.859047626356590E+07,
2461589.500000000, A.D. 2027-Jul-03 00:00:00.0000, -3.481752777684743E+08, 1.976878133276267E+08, 3.786829370248399E+07,
2461596.500000000, A.D. 2027-Jul-10 00:00:00.0000, -3.528061117872721E+08, 1.890160494960492E+08, 3.711783402193730E+07,
2461603.500000000, A.D. 2027-Jul-17 00:00:00.0000, -3.571734507526879E+08, 1.802030989778285E+08, 3.633961575147767E+07,
2461610.500000000, A.D. 2027-Jul-24 00:00:00.0000, -3.612735065172334E+08, 1.712552864216127E+08, 3.553416796211872E+07,
2461617.500000000, A.D. 2027-Jul-31 00:00:00.0000, -3.651025583075714E+08, 1.621790061117973E+08, 3.470203059876391E+07,
2461624.500000000, A.D. 2027-Aug-07 00:00:00.0000, -3.686569509581900E+08, 1.529807272603087E+08, 3.384375490914696E+07,
2461631.500000000, A.D. 2027-Aug-14 00:00:00.0000, -3.719330953760592E+08, 1.436670004122506E+08, 3.295990416014629E+07,
2461638.500000000, A.D. 2027-Aug-21 00:00:00.0000, -3.749274706287534E+08, 1.342444616042887E+08, 3.205105431036631E+07,
2461645.500000000, A.D. 2027-Aug-28 00:00:00.0000, -3.776366242296837E+08, 1.247198354816296E+08, 3.111779442270204E+07,
2461652.500000000, A.D. 2027-Sep-04 00:00:00.0000, -3.800571718048444E+08, 1.150999398720514E+08, 3.016072712933194E+07,
2461659.500000000, A.D. 2027-Sep-11 00:00:00.0000, -3.821857975476032E+08, 1.053916911496800E+08, 2.918046922307654E+07,
2461666.500000000, A.D. 2027-Sep-18 00:00:00.0000, -3.840192553451631E+08, 9.560210973448035E+07, 2.817765231039510E+07,
2461673.500000000, A.D. 2027-Sep-25 00:00:00.0000, -3.855543703674744E+08, 8.573832564762272E+07, 2.715292349960957E+07,
2461680.500000000, A.D. 2027-Oct-02 00:00:00.0000, -3.867880410650936E+08, 7.580758414973900E+07, 2.610694612063818E+07,
2461687.500000000, A.D. 2027-Oct-09 00:00:00.0000, -3.877172415753094E+08, 6.581725145787618E+07, 2.504040047449068E+07,
2461694.500000000, A.D. 2027-Oct-16 00:00:00.0000, -3.883390244947841E+08, 5.577482048568311E+07, 2.395398460268357E+07,
2461701.500000000, A.D. 2027-Oct-23 00:00:00.0000, -3.886505237806529E+08, 4.568791659856827E+07, 2.284841505258895E+07,
2461708.500000000, A.D. 2027-Oct-30 00:00:00.0000, -3.886489574284431E+08, 3.556430398933533E+07, 2.172442765452074E+07,
2461715.500000000, A.D. 2027-Nov-06 00:00:00.0000, -3.883316311155584E+08, 2.541189379505743E+07, 2.058277850973524E+07,
2461722.500000000, A.D. 2027-Nov-13 00:00:00.0000, -3.876959448259327E+08, 1.523875186932297E+07, 1.942424520205066E+07,
2461729.500000000, A.D. 2027-Nov-20 00:00:00.0000, -3.867393995886080E+08, 5.053104014641557E+06, 1.824962778872813E+07,
2461736.500000000, A.D. 2027-Nov-27 00:00:00.0000, -3.854596027451160E+08, -5.136658370223550E+06, 1.705974966491859E+07,
2461743.500000000, A.D. 2027-Dec-04 00:00:00.0000, -3.838542738013335E+08, -1.532197132936274E+07, 1.585545856197108E+07,
2461750.500000000, A.D. 2027-Dec-11 00:00:00.0000, -3.819212514534099E+08, -2.549409105912235E+07, 1.463762765107998E+07,
2461757.500000000, A.D. 2027-Dec-18 00:00:00.0000, -3.796585015568949E+08, -3.564408664780147E+07, 1.340715669904204E+07,
2461764.500000000, A.D. 2027-Dec-25 00:00:00.0000, -3.770641259323167E+08, -4.576283287090632E+07, 1.216497326151659E+07,
2461771.500000000, A.D. 2028-Jan-01 00:00:00.0000, -3.741363720123159E+08, -5.584100305486595E+07, 1.091203391034225E+07,
$$EOE